{"type": "FeatureCollection", "features": [{"type": "Feature", "properties": {"id": 0, "score": 0.1574409306049347}, "geometry": {"type": "LineString", "coordinates": [[-73.98997999999999, 40.740075000000004], [-73.98989999999999, 40.740075000000004]]}}, {"type": "Feature", "properties": {"id": 1, "score": 0.05567661672830582}, "geometry": {"type": "LineString", "coordinates": [[-73.98986, 40.740075000000004], [-73.98978, 40.740075000000004]]}}, {"type": "Feature", "properties": {"id": 2, "score": 0.19158509373664856}, "geometry": {"type": "LineString", "coordinates": [[-73.98974, 40.740075000000004], [-73.98966, 40.740075000000004]]}}, {"type": "Feature", "properties": {"id": 3, "score": 0.12702541053295135}, "geometry": {"type": "LineString", "coordinates": [[-73.98961999999999, 40.740075000000004], [-73.98953999999999, 40.740075000000004]]}}, {"type": "Feature", "properties": {"id": 4, "score": 0.1506635844707489}, "geometry": {"type": "LineString", "coordinates": [[-73.98949999999999, 40.740075000000004], [-73.98942, 40.740075000000004]]}}, {"type": "Feature", "properties": {"id": 5, "score": 0.08437387645244598}, "geometry": {"type": "LineString", "coordinates": [[-73.98938, 40.740075000000004], [-73.9893, 40.740075000000004]]}}, {"type": "Feature", "properties": {"id": 6, "score": 0.10279819369316101}, "geometry": {"type": "LineString", "coordinates": [[-73.98925999999999, 40.740075000000004], [-73.98917999999999, 40.740075000000004]]}}, {"type": "Feature", "properties": {"id": 7, "score": 0.19720539450645447}, "geometry": {"type": "LineString", "coordinates": [[-73.98913999999999, 40.740075000000004], [-73.98906, 40.740075000000004]]}}, {"type": "Feature", "properties": {"id": 8, "score": 0.1524209976196289}, "geometry": {"type": "LineString", "coordinates": [[-73.98902, 40.740075000000004], [-73.98894, 40.740075000000004]]}}, {"type": "Feature", "properties": {"id": 9, "score": 0.1156933456659317}, "geometry": {"type": "LineString", "coordinates": [[-73.98889999999999, 40.740075000000004], [-73.98881999999999, 40.740075000000004]]}}, {"type": "Feature", "properties": {"id": 10, "score": 0.08954309672117233}, "geometry": {"type": "LineString", "coordinates": [[-73.98877999999999, 40.740075000000004], [-73.9887, 40.740075000000004]]}}, {"type": "Feature", "properties": {"id": 11, "score": 0.25529536604881287}, "geometry": {"type": "LineString", "coordinates": [[-73.98866, 40.740075000000004], [-73.98858, 40.740075000000004]]}}, {"type": "Feature", "properties": {"id": 12, "score": 0.17284080386161804}, "geometry": {"type": "LineString", "coordinates": [[-73.98997999999999, 40.740225], [-73.98989999999999, 40.740225]]}}, {"type": "Feature", "properties": {"id": 13, "score": 0.061491601169109344}, "geometry": {"type": "LineString", "coordinates": [[-73.98986, 40.740225], [-73.98978, 40.740225]]}}, {"type": "Feature", "properties": {"id": 14, "score": 0.11765481531620026}, "geometry": {"type": "LineString", "coordinates": [[-73.98974, 40.740225], [-73.98966, 40.740225]]}}, {"type": "Feature", "properties": {"id": 15, "score": 0.09301409870386124}, "geometry": {"type": "LineString", "coordinates": [[-73.98961999999999, 40.740225], [-73.98953999999999, 40.740225]]}}, {"type": "Feature", "properties": {"id": 16, "score": 0.20805451273918152}, "geometry": {"type": "LineString", "coordinates": [[-73.98949999999999, 40.740225], [-73.98942, 40.740225]]}}, {"type": "Feature", "properties": {"id": 17, "score": 0.12253870815038681}, "geometry": {"type": "LineString", "coordinates": [[-73.98938, 40.740225], [-73.9893, 40.740225]]}}, {"type": "Feature", "properties": {"id": 18, "score": 0.21521183848381042}, "geometry": {"type": "LineString", "coordinates": [[-73.98925999999999, 40.740225], [-73.98917999999999, 40.740225]]}}, {"type": "Feature", "properties": {"id": 19, "score": 0.0549895279109478}, "geometry": {"type": "LineString", "coordinates": [[-73.98913999999999, 40.740225], [-73.98906, 40.740225]]}}, {"type": "Feature", "properties": {"id": 20, "score": 0.14043262600898743}, "geometry": {"type": "LineString", "coordinates": [[-73.98902, 40.740225], [-73.98894, 40.740225]]}}, {"type": "Feature", "properties": {"id": 21, "score": 0.03838714212179184}, "geometry": {"type": "LineString", "coordinates": [[-73.98889999999999, 40.740225], [-73.98881999999999, 40.740225]]}}, {"type": "Feature", "properties": {"id": 22, "score": -0.011341297999024391}, "geometry": {"type": "LineString", "coordinates": [[-73.98877999999999, 40.740225], [-73.9887, 40.740225]]}}, {"type": "Feature", "properties": {"id": 23, "score": 0.07191945612430573}, "geometry": {"type": "LineString", "coordinates": [[-73.98866, 40.740225], [-73.98858, 40.740225]]}}, {"type": "Feature", "properties": {"id": 24, "score": 0.17761707305908203}, "geometry": {"type": "LineString", "coordinates": [[-73.98997999999999, 40.740375], [-73.98989999999999, 40.740375]]}}, {"type": "Feature", "properties": {"id": 25, "score": 0.2499251812696457}, "geometry": {"type": "LineString", "coordinates": [[-73.98986, 40.740375], [-73.98978, 40.740375]]}}, {"type": "Feature", "properties": {"id": 26, "score": 0.15706364810466766}, "geometry": {"type": "LineString", "coordinates": [[-73.98974, 40.740375], [-73.98966, 40.740375]]}}, {"type": "Feature", "properties": {"id": 27, "score": 0.06189912557601929}, "geometry": {"type": "LineString", "coordinates": [[-73.98961999999999, 40.740375], [-73.98953999999999, 40.740375]]}}, {"type": "Feature", "properties": {"id": 28, "score": 0.18606756627559662}, "geometry": {"type": "LineString", "coordinates": [[-73.98949999999999, 40.740375], [-73.98942, 40.740375]]}}, {"type": "Feature", "properties": {"id": 29, "score": 0.0891164168715477}, "geometry": {"type": "LineString", "coordinates": [[-73.98938, 40.740375], [-73.9893, 40.740375]]}}, {"type": "Feature", "properties": {"id": 30, "score": 0.17006553709506989}, "geometry": {"type": "LineString", "coordinates": [[-73.98925999999999, 40.740375], [-73.98917999999999, 40.740375]]}}, {"type": "Feature", "properties": {"id": 31, "score": 0.13692021369934082}, "geometry": {"type": "LineString", "coordinates": [[-73.98913999999999, 40.740375], [-73.98906, 40.740375]]}}, {"type": "Feature", "properties": {"id": 32, "score": 0.14492802321910858}, "geometry": {"type": "LineString", "coordinates": [[-73.98902, 40.740375], [-73.98894, 40.740375]]}}, {"type": "Feature", "properties": {"id": 33, "score": -0.07248902320861816}, "geometry": {"type": "LineString", "coordinates": [[-73.98889999999999, 40.740375], [-73.98881999999999, 40.740375]]}}, {"type": "Feature", "properties": {"id": 34, "score": 0.16776248812675476}, "geometry": {"type": "LineString", "coordinates": [[-73.98877999999999, 40.740375], [-73.9887, 40.740375]]}}, {"type": "Feature", "properties": {"id": 35, "score": 0.12325439602136612}, "geometry": {"type": "LineString", "coordinates": [[-73.98866, 40.740375], [-73.98858, 40.740375]]}}, {"type": "Feature", "properties": {"id": 36, "score": 0.030966579914093018}, "geometry": {"type": "LineString", "coordinates": [[-73.98997999999999, 40.740525000000005], [-73.98989999999999, 40.740525000000005]]}}, {"type": "Feature", "properties": {"id": 37, "score": 0.20991648733615875}, "geometry": {"type": "LineString", "coordinates": [[-73.98986, 40.740525000000005], [-73.98978, 40.740525000000005]]}}, {"type": "Feature", "properties": {"id": 38, "score": 0.2525482773780823}, "geometry": {"type": "LineString", "coordinates": [[-73.98974, 40.740525000000005], [-73.98966, 40.740525000000005]]}}, {"type": "Feature", "properties": {"id": 39, "score": 0.017975740134716034}, "geometry": {"type": "LineString", "coordinates": [[-73.98961999999999, 40.740525000000005], [-73.98953999999999, 40.740525000000005]]}}, {"type": "Feature", "properties": {"id": 40, "score": 0.10466840863227844}, "geometry": {"type": "LineString", "coordinates": [[-73.98949999999999, 40.740525000000005], [-73.98942, 40.740525000000005]]}}, {"type": "Feature", "properties": {"id": 41, "score": -0.014377494342625141}, "geometry": {"type": "LineString", "coordinates": [[-73.98938, 40.740525000000005], [-73.9893, 40.740525000000005]]}}, {"type": "Feature", "properties": {"id": 42, "score": 0.09082463383674622}, "geometry": {"type": "LineString", "coordinates": [[-73.98925999999999, 40.740525000000005], [-73.98917999999999, 40.740525000000005]]}}, {"type": "Feature", "properties": {"id": 43, "score": 0.23128291964530945}, "geometry": {"type": "LineString", "coordinates": [[-73.98913999999999, 40.740525000000005], [-73.98906, 40.740525000000005]]}}, {"type": "Feature", "properties": {"id": 44, "score": 0.10647448152303696}, "geometry": {"type": "LineString", "coordinates": [[-73.98902, 40.740525000000005], [-73.98894, 40.740525000000005]]}}, {"type": "Feature", "properties": {"id": 45, "score": 0.17471802234649658}, "geometry": {"type": "LineString", "coordinates": [[-73.98889999999999, 40.740525000000005], [-73.98881999999999, 40.740525000000005]]}}, {"type": "Feature", "properties": {"id": 46, "score": 0.1354389488697052}, "geometry": {"type": "LineString", "coordinates": [[-73.98877999999999, 40.740525000000005], [-73.9887, 40.740525000000005]]}}, {"type": "Feature", "properties": {"id": 47, "score": 0.060625676065683365}, "geometry": {"type": "LineString", "coordinates": [[-73.98866, 40.740525000000005], [-73.98858, 40.740525000000005]]}}, {"type": "Feature", "properties": {"id": 48, "score": 0.16789743304252625}, "geometry": {"type": "LineString", "coordinates": [[-73.98997999999999, 40.740675], [-73.98989999999999, 40.740675]]}}, {"type": "Feature", "properties": {"id": 49, "score": -0.011707603931427002}, "geometry": {"type": "LineString", "coordinates": [[-73.98986, 40.740675], [-73.98978, 40.740675]]}}, {"type": "Feature", "properties": {"id": 50, "score": 0.26836416125297546}, "geometry": {"type": "LineString", "coordinates": [[-73.98974, 40.740675], [-73.98966, 40.740675]]}}, {"type": "Feature", "properties": {"id": 51, "score": 0.13969719409942627}, "geometry": {"type": "LineString", "coordinates": [[-73.98961999999999, 40.740675], [-73.98953999999999, 40.740675]]}}, {"type": "Feature", "properties": {"id": 52, "score": 0.06226690486073494}, "geometry": {"type": "LineString", "coordinates": [[-73.98949999999999, 40.740675], [-73.98942, 40.740675]]}}, {"type": "Feature", "properties": {"id": 53, "score": 0.18183152377605438}, "geometry": {"type": "LineString", "coordinates": [[-73.98938, 40.740675], [-73.9893, 40.740675]]}}, {"type": "Feature", "properties": {"id": 54, "score": 0.07083172351121902}, "geometry": {"type": "LineString", "coordinates": [[-73.98925999999999, 40.740675], [-73.98917999999999, 40.740675]]}}, {"type": "Feature", "properties": {"id": 55, "score": -0.013525375165045261}, "geometry": {"type": "LineString", "coordinates": [[-73.98913999999999, 40.740675], [-73.98906, 40.740675]]}}, {"type": "Feature", "properties": {"id": 56, "score": 0.035852476954460144}, "geometry": {"type": "LineString", "coordinates": [[-73.98902, 40.740675], [-73.98894, 40.740675]]}}, {"type": "Feature", "properties": {"id": 57, "score": 0.1443646401166916}, "geometry": {"type": "LineString", "coordinates": [[-73.98889999999999, 40.740675], [-73.98881999999999, 40.740675]]}}, {"type": "Feature", "properties": {"id": 58, "score": 0.14195406436920166}, "geometry": {"type": "LineString", "coordinates": [[-73.98877999999999, 40.740675], [-73.9887, 40.740675]]}}, {"type": "Feature", "properties": {"id": 59, "score": 0.032555848360061646}, "geometry": {"type": "LineString", "coordinates": [[-73.98866, 40.740675], [-73.98858, 40.740675]]}}, {"type": "Feature", "properties": {"id": 60, "score": 0.22544702887535095}, "geometry": {"type": "LineString", "coordinates": [[-73.98997999999999, 40.740825], [-73.98989999999999, 40.740825]]}}, {"type": "Feature", "properties": {"id": 61, "score": 0.006130947265774012}, "geometry": {"type": "LineString", "coordinates": [[-73.98986, 40.740825], [-73.98978, 40.740825]]}}, {"type": "Feature", "properties": {"id": 62, "score": 0.14583761990070343}, "geometry": {"type": "LineString", "coordinates": [[-73.98974, 40.740825], [-73.98966, 40.740825]]}}, {"type": "Feature", "properties": {"id": 63, "score": 0.12977172434329987}, "geometry": {"type": "LineString", "coordinates": [[-73.98961999999999, 40.740825], [-73.98953999999999, 40.740825]]}}, {"type": "Feature", "properties": {"id": 64, "score": 0.033271852880716324}, "geometry": {"type": "LineString", "coordinates": [[-73.98949999999999, 40.740825], [-73.98942, 40.740825]]}}, {"type": "Feature", "properties": {"id": 65, "score": 0.14915814995765686}, "geometry": {"type": "LineString", "coordinates": [[-73.98938, 40.740825], [-73.9893, 40.740825]]}}, {"type": "Feature", "properties": {"id": 66, "score": 0.07534526288509369}, "geometry": {"type": "LineString", "coordinates": [[-73.98925999999999, 40.740825], [-73.98917999999999, 40.740825]]}}, {"type": "Feature", "properties": {"id": 67, "score": 0.12234535813331604}, "geometry": {"type": "LineString", "coordinates": [[-73.98913999999999, 40.740825], [-73.98906, 40.740825]]}}, {"type": "Feature", "properties": {"id": 68, "score": 0.01898273639380932}, "geometry": {"type": "LineString", "coordinates": [[-73.98902, 40.740825], [-73.98894, 40.740825]]}}, {"type": "Feature", "properties": {"id": 69, "score": 0.040623996406793594}, "geometry": {"type": "LineString", "coordinates": [[-73.98889999999999, 40.740825], [-73.98881999999999, 40.740825]]}}, {"type": "Feature", "properties": {"id": 70, "score": 0.11322767287492752}, "geometry": {"type": "LineString", "coordinates": [[-73.98877999999999, 40.740825], [-73.9887, 40.740825]]}}, {"type": "Feature", "properties": {"id": 71, "score": 0.027319369837641716}, "geometry": {"type": "LineString", "coordinates": [[-73.98866, 40.740825], [-73.98858, 40.740825]]}}, {"type": "Feature", "properties": {"id": 72, "score": 0.06201040744781494}, "geometry": {"type": "LineString", "coordinates": [[-73.98997999999999, 40.740975], [-73.98989999999999, 40.740975]]}}, {"type": "Feature", "properties": {"id": 73, "score": 0.17263305187225342}, "geometry": {"type": "LineString", "coordinates": [[-73.98986, 40.740975], [-73.98978, 40.740975]]}}, {"type": "Feature", "properties": {"id": 74, "score": 0.04955531656742096}, "geometry": {"type": "LineString", "coordinates": [[-73.98974, 40.740975], [-73.98966, 40.740975]]}}, {"type": "Feature", "properties": {"id": 75, "score": -0.025408579036593437}, "geometry": {"type": "LineString", "coordinates": [[-73.98961999999999, 40.740975], [-73.98953999999999, 40.740975]]}}, {"type": "Feature", "properties": {"id": 76, "score": 0.161227285861969}, "geometry": {"type": "LineString", "coordinates": [[-73.98949999999999, 40.740975], [-73.98942, 40.740975]]}}, {"type": "Feature", "properties": {"id": 77, "score": 0.0073716421611607075}, "geometry": {"type": "LineString", "coordinates": [[-73.98938, 40.740975], [-73.9893, 40.740975]]}}, {"type": "Feature", "properties": {"id": 78, "score": 0.16730497777462006}, "geometry": {"type": "LineString", "coordinates": [[-73.98925999999999, 40.740975], [-73.98917999999999, 40.740975]]}}, {"type": "Feature", "properties": {"id": 79, "score": 0.03888571262359619}, "geometry": {"type": "LineString", "coordinates": [[-73.98913999999999, 40.740975], [-73.98906, 40.740975]]}}, {"type": "Feature", "properties": {"id": 80, "score": 0.04471825063228607}, "geometry": {"type": "LineString", "coordinates": [[-73.98902, 40.740975], [-73.98894, 40.740975]]}}, {"type": "Feature", "properties": {"id": 81, "score": 0.17939645051956177}, "geometry": {"type": "LineString", "coordinates": [[-73.98889999999999, 40.740975], [-73.98881999999999, 40.740975]]}}, {"type": "Feature", "properties": {"id": 82, "score": 0.14032700657844543}, "geometry": {"type": "LineString", "coordinates": [[-73.98877999999999, 40.740975], [-73.9887, 40.740975]]}}, {"type": "Feature", "properties": {"id": 83, "score": 0.01225045695900917}, "geometry": {"type": "LineString", "coordinates": [[-73.98866, 40.740975], [-73.98858, 40.740975]]}}, {"type": "Feature", "properties": {"id": 84, "score": 0.11019372940063477}, "geometry": {"type": "LineString", "coordinates": [[-73.98997999999999, 40.741125000000004], [-73.98989999999999, 40.741125000000004]]}}, {"type": "Feature", "properties": {"id": 85, "score": -0.040828265249729156}, "geometry": {"type": "LineString", "coordinates": [[-73.98986, 40.741125000000004], [-73.98978, 40.741125000000004]]}}, {"type": "Feature", "properties": {"id": 86, "score": 0.13149458169937134}, "geometry": {"type": "LineString", "coordinates": [[-73.98974, 40.741125000000004], [-73.98966, 40.741125000000004]]}}, {"type": "Feature", "properties": {"id": 87, "score": 0.11141840368509293}, "geometry": {"type": "LineString", "coordinates": [[-73.98961999999999, 40.741125000000004], [-73.98953999999999, 40.741125000000004]]}}, {"type": "Feature", "properties": {"id": 88, "score": 0.12288063764572144}, "geometry": {"type": "LineString", "coordinates": [[-73.98949999999999, 40.741125000000004], [-73.98942, 40.741125000000004]]}}, {"type": "Feature", "properties": {"id": 89, "score": 0.026608368381857872}, "geometry": {"type": "LineString", "coordinates": [[-73.98938, 40.741125000000004], [-73.9893, 40.741125000000004]]}}, {"type": "Feature", "properties": {"id": 90, "score": 0.01746343821287155}, "geometry": {"type": "LineString", "coordinates": [[-73.98925999999999, 40.741125000000004], [-73.98917999999999, 40.741125000000004]]}}, {"type": "Feature", "properties": {"id": 91, "score": 0.11256296187639236}, "geometry": {"type": "LineString", "coordinates": [[-73.98913999999999, 40.741125000000004], [-73.98906, 40.741125000000004]]}}, {"type": "Feature", "properties": {"id": 92, "score": 0.1342514157295227}, "geometry": {"type": "LineString", "coordinates": [[-73.98902, 40.741125000000004], [-73.98894, 40.741125000000004]]}}, {"type": "Feature", "properties": {"id": 93, "score": 0.1695001721382141}, "geometry": {"type": "LineString", "coordinates": [[-73.98889999999999, 40.741125000000004], [-73.98881999999999, 40.741125000000004]]}}, {"type": "Feature", "properties": {"id": 94, "score": 0.1458471268415451}, "geometry": {"type": "LineString", "coordinates": [[-73.98877999999999, 40.741125000000004], [-73.9887, 40.741125000000004]]}}, {"type": "Feature", "properties": {"id": 95, "score": 0.026272498071193695}, "geometry": {"type": "LineString", "coordinates": [[-73.98866, 40.741125000000004], [-73.98858, 40.741125000000004]]}}, {"type": "Feature", "properties": {"id": 96, "score": 0.15023274719715118}, "geometry": {"type": "LineString", "coordinates": [[-73.98997999999999, 40.741275], [-73.98989999999999, 40.741275]]}}, {"type": "Feature", "properties": {"id": 97, "score": 0.16999182105064392}, "geometry": {"type": "LineString", "coordinates": [[-73.98986, 40.741275], [-73.98978, 40.741275]]}}, {"type": "Feature", "properties": {"id": 98, "score": 0.15158818662166595}, "geometry": {"type": "LineString", "coordinates": [[-73.98974, 40.741275], [-73.98966, 40.741275]]}}, {"type": "Feature", "properties": {"id": 99, "score": 0.08232137560844421}, "geometry": {"type": "LineString", "coordinates": [[-73.98961999999999, 40.741275], [-73.98953999999999, 40.741275]]}}, {"type": "Feature", "properties": {"id": 100, "score": 0.12364882230758667}, "geometry": {"type": "LineString", "coordinates": [[-73.98949999999999, 40.741275], [-73.98942, 40.741275]]}}, {"type": "Feature", "properties": {"id": 101, "score": 0.0866035744547844}, "geometry": {"type": "LineString", "coordinates": [[-73.98938, 40.741275], [-73.9893, 40.741275]]}}, {"type": "Feature", "properties": {"id": 102, "score": -0.011543179862201214}, "geometry": {"type": "LineString", "coordinates": [[-73.98925999999999, 40.741275], [-73.98917999999999, 40.741275]]}}, {"type": "Feature", "properties": {"id": 103, "score": 0.21343450248241425}, "geometry": {"type": "LineString", "coordinates": [[-73.98913999999999, 40.741275], [-73.98906, 40.741275]]}}, {"type": "Feature", "properties": {"id": 104, "score": 0.1100054383277893}, "geometry": {"type": "LineString", "coordinates": [[-73.98902, 40.741275], [-73.98894, 40.741275]]}}, {"type": "Feature", "properties": {"id": 105, "score": 0.0053761303424835205}, "geometry": {"type": "LineString", "coordinates": [[-73.98889999999999, 40.741275], [-73.98881999999999, 40.741275]]}}, {"type": "Feature", "properties": {"id": 106, "score": -0.05498060584068298}, "geometry": {"type": "LineString", "coordinates": [[-73.98877999999999, 40.741275], [-73.9887, 40.741275]]}}, {"type": "Feature", "properties": {"id": 107, "score": 0.1545761376619339}, "geometry": {"type": "LineString", "coordinates": [[-73.98866, 40.741275], [-73.98858, 40.741275]]}}, {"type": "Feature", "properties": {"id": 108, "score": 0.13739491999149323}, "geometry": {"type": "LineString", "coordinates": [[-73.98997999999999, 40.741425], [-73.98989999999999, 40.741425]]}}, {"type": "Feature", "properties": {"id": 109, "score": 0.21229147911071777}, "geometry": {"type": "LineString", "coordinates": [[-73.98986, 40.741425], [-73.98978, 40.741425]]}}, {"type": "Feature", "properties": {"id": 110, "score": 0.043375272303819656}, "geometry": {"type": "LineString", "coordinates": [[-73.98974, 40.741425], [-73.98966, 40.741425]]}}, {"type": "Feature", "properties": {"id": 111, "score": 0.07897034287452698}, "geometry": {"type": "LineString", "coordinates": [[-73.98961999999999, 40.741425], [-73.98953999999999, 40.741425]]}}, {"type": "Feature", "properties": {"id": 112, "score": 0.07192084938287735}, "geometry": {"type": "LineString", "coordinates": [[-73.98949999999999, 40.741425], [-73.98942, 40.741425]]}}, {"type": "Feature", "properties": {"id": 113, "score": 0.1225488930940628}, "geometry": {"type": "LineString", "coordinates": [[-73.98938, 40.741425], [-73.9893, 40.741425]]}}, {"type": "Feature", "properties": {"id": 114, "score": 0.2567935585975647}, "geometry": {"type": "LineString", "coordinates": [[-73.98925999999999, 40.741425], [-73.98917999999999, 40.741425]]}}, {"type": "Feature", "properties": {"id": 115, "score": 0.09470122307538986}, "geometry": {"type": "LineString", "coordinates": [[-73.98913999999999, 40.741425], [-73.98906, 40.741425]]}}, {"type": "Feature", "properties": {"id": 116, "score": 0.11929742991924286}, "geometry": {"type": "LineString", "coordinates": [[-73.98902, 40.741425], [-73.98894, 40.741425]]}}, {"type": "Feature", "properties": {"id": 117, "score": 0.08317045867443085}, "geometry": {"type": "LineString", "coordinates": [[-73.98889999999999, 40.741425], [-73.98881999999999, 40.741425]]}}, {"type": "Feature", "properties": {"id": 118, "score": 0.19813667237758636}, "geometry": {"type": "LineString", "coordinates": [[-73.98877999999999, 40.741425], [-73.9887, 40.741425]]}}, {"type": "Feature", "properties": {"id": 119, "score": 0.016939138993620872}, "geometry": {"type": "LineString", "coordinates": [[-73.98866, 40.741425], [-73.98858, 40.741425]]}}, {"type": "Feature", "properties": {"id": 120, "score": 0.039207641035318375}, "geometry": {"type": "LineString", "coordinates": [[-73.98997999999999, 40.741575000000005], [-73.98989999999999, 40.741575000000005]]}}, {"type": "Feature", "properties": {"id": 121, "score": 0.17339029908180237}, "geometry": {"type": "LineString", "coordinates": [[-73.98986, 40.741575000000005], [-73.98978, 40.741575000000005]]}}, {"type": "Feature", "properties": {"id": 122, "score": -0.039073992520570755}, "geometry": {"type": "LineString", "coordinates": [[-73.98974, 40.741575000000005], [-73.98966, 40.741575000000005]]}}, {"type": "Feature", "properties": {"id": 123, "score": 0.19493865966796875}, "geometry": {"type": "LineString", "coordinates": [[-73.98961999999999, 40.741575000000005], [-73.98953999999999, 40.741575000000005]]}}, {"type": "Feature", "properties": {"id": 124, "score": 0.1372406929731369}, "geometry": {"type": "LineString", "coordinates": [[-73.98949999999999, 40.741575000000005], [-73.98942, 40.741575000000005]]}}, {"type": "Feature", "properties": {"id": 125, "score": 0.021840142086148262}, "geometry": {"type": "LineString", "coordinates": [[-73.98938, 40.741575000000005], [-73.9893, 40.741575000000005]]}}, {"type": "Feature", "properties": {"id": 126, "score": 0.09557490050792694}, "geometry": {"type": "LineString", "coordinates": [[-73.98925999999999, 40.741575000000005], [-73.98917999999999, 40.741575000000005]]}}, {"type": "Feature", "properties": {"id": 127, "score": 0.09149990975856781}, "geometry": {"type": "LineString", "coordinates": [[-73.98913999999999, 40.741575000000005], [-73.98906, 40.741575000000005]]}}, {"type": "Feature", "properties": {"id": 128, "score": 0.05752059817314148}, "geometry": {"type": "LineString", "coordinates": [[-73.98902, 40.741575000000005], [-73.98894, 40.741575000000005]]}}, {"type": "Feature", "properties": {"id": 129, "score": 0.07383275777101517}, "geometry": {"type": "LineString", "coordinates": [[-73.98889999999999, 40.741575000000005], [-73.98881999999999, 40.741575000000005]]}}, {"type": "Feature", "properties": {"id": 130, "score": 0.10919451713562012}, "geometry": {"type": "LineString", "coordinates": [[-73.98877999999999, 40.741575000000005], [-73.9887, 40.741575000000005]]}}, {"type": "Feature", "properties": {"id": 131, "score": 0.1936052441596985}, "geometry": {"type": "LineString", "coordinates": [[-73.98866, 40.741575000000005], [-73.98858, 40.741575000000005]]}}, {"type": "Feature", "properties": {"id": 132, "score": 0.19061528146266937}, "geometry": {"type": "LineString", "coordinates": [[-73.98997999999999, 40.741725], [-73.98989999999999, 40.741725]]}}, {"type": "Feature", "properties": {"id": 133, "score": 0.022906187921762466}, "geometry": {"type": "LineString", "coordinates": [[-73.98986, 40.741725], [-73.98978, 40.741725]]}}, {"type": "Feature", "properties": {"id": 134, "score": 0.1518368273973465}, "geometry": {"type": "LineString", "coordinates": [[-73.98974, 40.741725], [-73.98966, 40.741725]]}}, {"type": "Feature", "properties": {"id": 135, "score": 0.1424935758113861}, "geometry": {"type": "LineString", "coordinates": [[-73.98961999999999, 40.741725], [-73.98953999999999, 40.741725]]}}, {"type": "Feature", "properties": {"id": 136, "score": 0.11811459809541702}, "geometry": {"type": "LineString", "coordinates": [[-73.98949999999999, 40.741725], [-73.98942, 40.741725]]}}, {"type": "Feature", "properties": {"id": 137, "score": 0.11037921160459518}, "geometry": {"type": "LineString", "coordinates": [[-73.98938, 40.741725], [-73.9893, 40.741725]]}}, {"type": "Feature", "properties": {"id": 138, "score": 0.02598271146416664}, "geometry": {"type": "LineString", "coordinates": [[-73.98925999999999, 40.741725], [-73.98917999999999, 40.741725]]}}, {"type": "Feature", "properties": {"id": 139, "score": -0.020378293469548225}, "geometry": {"type": "LineString", "coordinates": [[-73.98913999999999, 40.741725], [-73.98906, 40.741725]]}}, {"type": "Feature", "properties": {"id": 140, "score": 0.09310629963874817}, "geometry": {"type": "LineString", "coordinates": [[-73.98902, 40.741725], [-73.98894, 40.741725]]}}, {"type": "Feature", "properties": {"id": 141, "score": 0.09593719989061356}, "geometry": {"type": "LineString", "coordinates": [[-73.98889999999999, 40.741725], [-73.98881999999999, 40.741725]]}}, {"type": "Feature", "properties": {"id": 142, "score": 0.07119526714086533}, "geometry": {"type": "LineString", "coordinates": [[-73.98877999999999, 40.741725], [-73.9887, 40.741725]]}}, {"type": "Feature", "properties": {"id": 143, "score": 0.08772984147071838}, "geometry": {"type": "LineString", "coordinates": [[-73.98866, 40.741725], [-73.98858, 40.741725]]}}]}